STARLINK-31096          
1 58592U 23200D   26068.29383499  .00044809  00000+0  18692-2 0  9997
2 58592  43.0024 171.6597 0002152 311.2907  48.7758 15.22976409123542
YAOGAN-43 02D           
1 60948U 24156D   26068.54743015  .00011480  00000+0  47394-3 0  9999
2 60948  34.9920 104.6408 0003680  78.2879 281.8248 15.23237701 84249
